0 STARLINK-37478
1 69260U 26117Y   26161.58335648 -.01583106  00000-0 -63731-2 0  9996
2 69260  53.1550 276.0522 0000957  63.2711 119.9084 15.88345226  3110
0 STARLINK-37506
1 69261U 26117Z   26161.58335648 -.01805449  00000-0 -73131-2 0  9999
2 69261  53.1546 276.0402 0001136  62.8065 125.9919 15.88621208  3111
0 STARLINK-37503
1 69262U 26117AA  26161.58335648 -.01812602  00000-0 -74032-2 0  9990
2 69262  53.1549 276.0345 0000986  66.5333 124.7669 15.88473357  3111
0 STARLINK-37502
1 69263U 26117AB  26161.58335648 -.01784702  00000-0 -72853-2 0  9999
2 69263  53.1547 276.0293 0001034  67.2057 126.3634 15.88431491  3111
0 STARLINK-37486
1 69264U 26117AC  26161.58335648 -.01804982  00000-0 -74644-2 0  9993
2 69264  53.1545 276.0196 0001103  65.2022 133.0980 15.88211904  3113
0 STARLINK-37435
1 69265U 26117AD  26161.58335648 -.01789519  00000-0 -78544-2 0  9995
2 69265  53.1549 276.0132 0000902  64.1027 136.7572 15.87000694  3115
0 STARLINK-37464
1 69266U 26117AE  26161.58335648 -.02028074  00000-0 -91966-2 0  9992
2 69266  53.1548 275.9949 0000912  60.5103 149.0642 15.86219563  3116
0 KUIPER-00282
1 69267U 26118A   26161.57971659  .00009941  00000-0  30186-3 0  9997
2 69267  51.8591  85.3936 0011765 156.2928 203.8602 15.34650259  2966
0 KUIPER-00383
1 69268U 26118B   26161.57674833  .00014655  00000-0  43477-3 0  9997
2 69268  51.8591  85.3744 0010535 158.3892 201.7540 15.34997448  2963
0 KUIPER-00527
1 69269U 26118C   26161.50874625  .00004796  00000-0  14755-3 0  9994
2 69269  51.8619  85.6705 0009645 151.5421 208.6093 15.35536412  2957
0 KUIPER-00562
1 69270U 26118D   26161.49093291  .00019000  00000-0  50125-3 0  9991
2 69270  51.8718  85.5470 0001970  99.7964 260.3246 15.38502537  2954
0 KUIPER-00570
1 69271U 26118E   26161.57631486  .00019238  00000-0  56042-3 0  9992
2 69271  51.8579  85.3708 0011698 160.8789 199.2638 15.35346972  2967
0 KUIPER-00572
1 69272U 26118F   26161.50314368  .00015573  00000-0  43517-3 0  9994
2 69272  51.8677  85.6348 0007332 146.1929 213.9526 15.36850960  2950
0 KUIPER-00581
1 69273U 26118G   26161.50553469  .00018095  00000-0  50873-3 0  9997
2 69273  51.8654  85.6514 0008885 151.1083 209.0397 15.36531574  3042
0 KUIPER-00584
1 69274U 26118H   26161.57813046 -.00001937  00000-0 -44443-4 0  9991
2 69274  51.8605  85.3838 0011024 165.2423 194.8887 15.35285068  2966
0 KUIPER-00587
1 69275U 26118J   26161.50502079  .00016724  00000-0  47142-3 0  9992
2 69275  51.8630  85.6467 0008366 152.7720 207.3707 15.36513341  2951
0 KUIPER-00590
1 69276U 26118K   26161.49653451  .00018675  00000-0  50517-3 0  9999
2 69276  51.8683  85.5926 0004427 133.3477 226.7879 15.37735270  2950
0 KUIPER-00592
1 69277U 26118L   26161.42997266  .00019239  00000-0  51621-3 0  9992
2 69277  51.8702  85.8946 0003777 111.4415 248.6975 15.37968706  2945
0 KUIPER-00593
1 69278U 26118M   26161.49531161  .00017716  00000-0  47786-3 0  9993
2 69278  51.8710  85.5810 0004081 128.4524 231.6830 15.37863949  3014
0 KUIPER-00594
1 69279U 26118N   26161.48986329  .00018225  00000-0  48171-3 0  9998
2 69279  51.8713  85.5442 0001230  67.7479 292.3639 15.38473309  2957
0 KUIPER-00595
1 69280U 26118P   26161.49160267  .00018222  00000-0  48335-3 0  9995
2 69280  51.8708  85.5575 0002032 111.4875 248.6328 15.38364533  2988
0 KUIPER-00596
1 69281U 26118Q   26161.57691928  .00010970  00000-0  32347-3 0  9996
2 69281  51.8553  85.3728 0011885 159.6491 200.4971 15.35465976  2967
0 KUIPER-00597
1 69282U 26118R   26161.50159764  .00016865  00000-0  46922-3 0  9990
2 69282  51.8650  85.6254 0007202 144.8991 215.2471 15.36923522  2957
0 KUIPER-00599
1 69283U 26118S   26161.50020365  .00016001  00000-0  44160-3 0  9999
2 69283  51.8689  85.6155 0006394 138.7029 221.4442 15.37222384  2951
0 KUIPER-00600
1 69284U 26118T   26161.30938573  .00021102  00000-0  58944-3 0  9990
2 69284  51.8638  86.5873 0008916 146.5363 213.6188 15.36626719  2929
0 KUIPER-00601
1 69285U 26118U   26161.36797104  .00011102  00000-0  30674-3 0  9999
2 69285  51.8698  86.2294 0004899 131.4768 228.6640 15.37541219  2930
0 KUIPER-00602
1 69286U 26118V   26161.49431372  .00021014  00000-0  56218-3 0  9991
2 69286  51.8698  85.5773 0003171 121.8249 238.3047 15.38000242  2952
0 KUIPER-00603
1 69287U 26118W   26161.36884126  .00022044  00000-0  60050-3 0  9990
2 69287  51.8667  86.2375 0005621 134.0998 226.0452 15.37400763  2937
0 KUIPER-00605
1 69288U 26118X   26161.50242098  .00016008  00000-0  44555-3 0  9998
2 69288  51.8662  85.6307 0007673 141.2352 218.9186 15.36949475  2957
0 KUIPER-00606
1 69289U 26118Y   26161.49706128  .00019790  00000-0  53617-3 0  9996
2 69289  51.8694  85.5949 0004776 129.1033 231.0379 15.37643821  2953
